[{"OBJECT_NAME":"STARLINK-30494","OBJECT_ID":"2023-151G","EPOCH":"2026-03-09T08:39:06.366240","MEAN_MOTION":15.28417441,"ECCENTRICITY":0.00011553,"INCLINATION":43.0027,"RA_OF_ASC_NODE":192.4566,"ARG_OF_PERICENTER":241.5536,"MEAN_ANOMALY":118.52,"EPHEMERIS_TYPE":0,"CLASSIFICATION_TYPE":"U","NORAD_CAT_ID":57970,"ELEMENT_SET_NO":999,"REV_AT_EPOCH":13740,"BSTAR":-3.569111e-5,"MEAN_MOTION_DOT":-1.272e-5,"MEAN_MOTION_DDOT":0},{"OBJECT_NAME":"STARLINK-35743","OBJECT_ID":"2025-268X","EPOCH":"2026-03-08T05:00:22.608000","MEAN_MOTION":15.27542303,"ECCENTRICITY":6.245e-5,"INCLINATION":42.9997,"RA_OF_ASC_NODE":355.3917,"ARG_OF_PERICENTER":335.4914,"MEAN_ANOMALY":24.5908,"EPHEMERIS_TYPE":0,"CLASSIFICATION_TYPE":"U","NORAD_CAT_ID":66578,"ELEMENT_SET_NO":999,"REV_AT_EPOCH":1773,"BSTAR":0.0016535397,"MEAN_MOTION_DOT":0.00045468,"MEAN_MOTION_DDOT":0}]
